{
"type": "FeatureCollection",
"name": "schools_geocoded",
"crs": { "type": "name", "properties": { "name": "urn:ogc:def:crs:OGC:1.3:CRS84" } },
"features": [
{ "type": "Feature", "properties": { "PROVINCIE": "Utrecht", "BEVOEGD GEZAG NUMMER": "13360", "INSTELLINGSCODE": "17AN", "INSTELLINGSNAAM": "Minkema College voor Lwoo Vmbo Havo Atheneum Gymnasium", "STRAATNAAM": "Minkemalaan", "HUISNUMMER-TOEVOEGING": "1", "POSTCODE": "3446 GL", "PLAATSNAAM": "WOERDEN", "GEMEENTENUMMER": "0632", "GEMEENTENAAM": "WOERDEN", "DENOMINATIE": "Openbaar", "TELEFOONNUMMER": "0348484100", "INTERNETADRES": "www.minkema.nl", "ONDERWIJSSTRUCTUUR": "VBO/MAVO/HAVO/VWO", "STRAATNAAM CORRESPONDENTIEADRES": "Minkemalaan", "HUISNUMMER-TOEVOEGING CORRESPONDENTIEADRES": "1", "POSTCODE CORRESPONDENTIEADRES": "3446 GL", "PLAATSNAAM CORRESPONDENTIEADRES": "WOERDEN", "NODAAL GEBIED CODE": "48", "NODAAL GEBIED NAAM": "Woerden", "RPA-GEBIED CODE": "18", "RPA-GEBIED NAAM": "Utrecht-Midden", "WGR-GEBIED CODE": "19", "WGR-GEBIED NAAM": "Utrecht", "COROPGEBIED CODE": "17", "COROPGEBIED NAAM": "Utrecht", "ONDERWIJSGEBIED CODE": "13", "ONDERWIJSGEBIED NAAM": "Utrecht en omstreken", "RMC-REGIO CODE": "19", "RMC-REGIO NAAM": "Utrecht" }, "geometry": { "type": "Point", "coordinates": [ 4.89462835, 52.08365655 ] } },
{ "type": "Feature", "properties": { "PROVINCIE": "Utrecht", "BEVOEGD GEZAG NUMMER": "29278", "INSTELLINGSCODE": "00MK", "INSTELLINGSNAAM": "Katholiek Scholengemeenschap De Breul voor Gymnasium Atheneum Havo en Mavo", "STRAATNAAM": "Arnhemse Bovenweg", "HUISNUMMER-TOEVOEGING": "98", "POSTCODE": "3708 AG", "PLAATSNAAM": "ZEIST", "GEMEENTENUMMER": "0355", "GEMEENTENAAM": "ZEIST", "DENOMINATIE": "Bijzonder", "TELEFOONNUMMER": "0306915604", "INTERNETADRES": "www.de-breul.nl", "ONDERWIJSSTRUCTUUR": "MAVO/HAVO/VWO", "STRAATNAAM CORRESPONDENTIEADRES": "Arnhemse Bovenweg", "HUISNUMMER-TOEVOEGING CORRESPONDENTIEADRES": "98", "POSTCODE CORRESPONDENTIEADRES": "3708 AG", "PLAATSNAAM CORRESPONDENTIEADRES": "ZEIST", "NODAAL GEBIED CODE": "36", "NODAAL GEBIED NAAM": "Utrecht", "RPA-GEBIED CODE": "18", "RPA-GEBIED NAAM": "Utrecht-Midden", "WGR-GEBIED CODE": "19", "WGR-GEBIED NAAM": "Utrecht", "COROPGEBIED CODE": "17", "COROPGEBIED NAAM": "Utrecht", "ONDERWIJSGEBIED CODE": "13", "ONDERWIJSGEBIED NAAM": "Utrecht en omstreken", "RMC-REGIO CODE": "19", "RMC-REGIO NAAM": "Utrecht" }, "geometry": { "type": "Point", "coordinates": [ 5.26329615, 52.0712086 ] } },
{ "type": "Feature", "properties": { "PROVINCIE": "Utrecht", "BEVOEGD GEZAG NUMMER": "30718", "INSTELLINGSCODE": "00JT", "INSTELLINGSNAAM": "Gereformeerde Scholengemeenschap Guido voor Lyceum HAVO MAVO VBO LWOO", "STRAATNAAM": "Paladijnenweg", "HUISNUMMER-TOEVOEGING": "251", "POSTCODE": "3813 DH", "PLAATSNAAM": "AMERSFOORT", "GEMEENTENUMMER": "0307", "GEMEENTENAAM": "AMERSFOORT", "DENOMINATIE": "Bijzonder", "TELEFOONNUMMER": "0334792999", "INTERNETADRES": "www.guido.nl", "ONDERWIJSSTRUCTUUR": "VBO/MAVO/HAVO/VWO", "STRAATNAAM CORRESPONDENTIEADRES": "Postbus", "HUISNUMMER-TOEVOEGING CORRESPONDENTIEADRES": "401", "POSTCODE CORRESPONDENTIEADRES": "3800 AK", "PLAATSNAAM CORRESPONDENTIEADRES": "AMERSFOORT", "NODAAL GEBIED CODE": "35", "NODAAL GEBIED NAAM": "Amersfoort", "RPA-GEBIED CODE": "17", "RPA-GEBIED NAAM": "Eemland", "WGR-GEBIED CODE": "16", "WGR-GEBIED NAAM": "Eem en Vallei", "COROPGEBIED CODE": "17", "COROPGEBIED NAAM": "Utrecht", "ONDERWIJSGEBIED CODE": "10", "ONDERWIJSGEBIED NAAM": "Harderwijk-Amersfoort", "RMC-REGIO CODE": "16", "RMC-REGIO NAAM": "Eem en Vallei" }, "geometry": { "type": "Point", "coordinates": [ 5.38621555, 52.16895695 ] } },
{ "type": "Feature", "properties": { "PROVINCIE": "Utrecht", "BEVOEGD GEZAG NUMMER": "40094", "INSTELLINGSCODE": "00RO", "INSTELLINGSNAAM": "Amadeus Lyceum voor Vwo Havo Mavo", "STRAATNAAM": "Burchtpoort", "HUISNUMMER-TOEVOEGING": "3", "POSTCODE": "3452 MD", "PLAATSNAAM": "VLEUTEN", "GEMEENTENUMMER": "0344", "GEMEENTENAAM": "UTRECHT", "DENOMINATIE": "Bijzonder", "TELEFOONNUMMER": "0306774338", "INTERNETADRES": "www.amadeuslyceum.nl", "ONDERWIJSSTRUCTUUR": "MAVO/HAVO/VWO", "STRAATNAAM CORRESPONDENTIEADRES": "Burchtpoort", "HUISNUMMER-TOEVOEGING CORRESPONDENTIEADRES": "3", "POSTCODE CORRESPONDENTIEADRES": "3452 MD", "PLAATSNAAM CORRESPONDENTIEADRES": "VLEUTEN", "NODAAL GEBIED CODE": "36", "NODAAL GEBIED NAAM": "Utrecht", "RPA-GEBIED CODE": "18", "RPA-GEBIED NAAM": "Utrecht-Midden", "WGR-GEBIED CODE": "19", "WGR-GEBIED NAAM": "Utrecht", "COROPGEBIED CODE": "17", "COROPGEBIED NAAM": "Utrecht", "ONDERWIJSGEBIED CODE": "13", "ONDERWIJSGEBIED NAAM": "Utrecht en omstreken", "RMC-REGIO CODE": "19", "RMC-REGIO NAAM": "Utrecht" }, "geometry": { "type": "Point", "coordinates": [ 5.01142975, 52.09405485 ] } },
{ "type": "Feature", "properties": { "PROVINCIE": "Utrecht", "BEVOEGD GEZAG NUMMER": "40094", "INSTELLINGSCODE": "01EK", "INSTELLINGSNAAM": "Kranenburg, School voor Praktijkonderwijs", "STRAATNAAM": "Tamboersdijk", "HUISNUMMER-TOEVOEGING": "9", "POSTCODE": "3582 TZ", "PLAATSNAAM": "UTRECHT", "GEMEENTENUMMER": "0344", "GEMEENTENAAM": "UTRECHT", "DENOMINATIE": "Bijzonder", "TELEFOONNUMMER": "0302512492", "INTERNETADRES": "www.pro-kranenburg.nl", "ONDERWIJSSTRUCTUUR": "PRO", "STRAATNAAM CORRESPONDENTIEADRES": "Postbus", "HUISNUMMER-TOEVOEGING CORRESPONDENTIEADRES": "9419", "POSTCODE CORRESPONDENTIEADRES": "3506 GK", "PLAATSNAAM CORRESPONDENTIEADRES": "UTRECHT", "NODAAL GEBIED CODE": "36", "NODAAL GEBIED NAAM": "Utrecht", "RPA-GEBIED CODE": "18", "RPA-GEBIED NAAM": "Utrecht-Midden", "WGR-GEBIED CODE": "19", "WGR-GEBIED NAAM": "Utrecht", "COROPGEBIED CODE": "17", "COROPGEBIED NAAM": "Utrecht", "ONDERWIJSGEBIED CODE": "13", "ONDERWIJSGEBIED NAAM": "Utrecht en omstreken", "RMC-REGIO CODE": "19", "RMC-REGIO NAAM": "Utrecht" }, "geometry": { "type": "Point", "coordinates": [ 5.1400396, 52.07637825 ] } },
{ "type": "Feature", "properties": { "PROVINCIE": "Utrecht", "BEVOEGD GEZAG NUMMER": "40094", "INSTELLINGSCODE": "01KF", "INSTELLINGSNAAM": "Sint Gregorius College Scholengemeenschap voor Atheneum Havo Mavo", "STRAATNAAM": "Nobeldwarsstraat", "HUISNUMMER-TOEVOEGING": "9", "POSTCODE": "3512 EW", "PLAATSNAAM": "UTRECHT", "GEMEENTENUMMER": "0344", "GEMEENTENAAM": "UTRECHT", "DENOMINATIE": "Bijzonder", "TELEFOONNUMMER": "0302326795", "INTERNETADRES": "www.gregorius.nl", "ONDERWIJSSTRUCTUUR": "MAVO/HAVO/VWO", "STRAATNAAM CORRESPONDENTIEADRES": "Nobeldwarsstraat", "HUISNUMMER-TOEVOEGING CORRESPONDENTIEADRES": "9", "POSTCODE CORRESPONDENTIEADRES": "3512 EW", "PLAATSNAAM CORRESPONDENTIEADRES": "UTRECHT", "NODAAL GEBIED CODE": "36", "NODAAL GEBIED NAAM": "Utrecht", "RPA-GEBIED CODE": "18", "RPA-GEBIED NAAM": "Utrecht-Midden", "WGR-GEBIED CODE": "19", "WGR-GEBIED NAAM": "Utrecht", "COROPGEBIED CODE": "17", "COROPGEBIED NAAM": "Utrecht", "ONDERWIJSGEBIED CODE": "13", "ONDERWIJSGEBIED NAAM": "Utrecht en omstreken", "RMC-REGIO CODE": "19", "RMC-REGIO NAAM": "Utrecht" }, "geometry": { "type": "Point", "coordinates": [ 5.12613695, 52.09215785 ] } },
{ "type": "Feature", "properties": { "PROVINCIE": "Utrecht", "BEVOEGD GEZAG NUMMER": "40094", "INSTELLINGSCODE": "02UE", "INSTELLINGSNAAM": "Scholengemeenschap St Bonifatius College Lyceum Havo", "STRAATNAAM": "Burg Fockema Andreaelaan", "HUISNUMMER-TOEVOEGING": "7-9", "POSTCODE": "3582 KA", "PLAATSNAAM": "UTRECHT", "GEMEENTENUMMER": "0344", "GEMEENTENAAM": "UTRECHT", "DENOMINATIE": "Bijzonder", "TELEFOONNUMMER": "0302512315", "INTERNETADRES": "www.boni.nl", "ONDERWIJSSTRUCTUUR": "HAVO/VWO", "STRAATNAAM CORRESPONDENTIEADRES": "Burg Fockema Andreaelaan", "HUISNUMMER-TOEVOEGING CORRESPONDENTIEADRES": "7", "POSTCODE CORRESPONDENTIEADRES": "3582 KA", "PLAATSNAAM CORRESPONDENTIEADRES": "UTRECHT", "NODAAL GEBIED CODE": "36", "NODAAL GEBIED NAAM": "Utrecht", "RPA-GEBIED CODE": "18", "RPA-GEBIED NAAM": "Utrecht-Midden", "WGR-GEBIED CODE": "19", "WGR-GEBIED NAAM": "Utrecht", "COROPGEBIED CODE": "17", "COROPGEBIED NAAM": "Utrecht", "ONDERWIJSGEBIED CODE": "13", "ONDERWIJSGEBIED NAAM": "Utrecht en omstreken", "RMC-REGIO CODE": "19", "RMC-REGIO NAAM": "Utrecht" }, "geometry": { "type": "Point", "coordinates": [ 5.1368451, 52.0826116 ] } },
{ "type": "Feature", "properties": { "PROVINCIE": "Utrecht", "BEVOEGD GEZAG NUMMER": "40094", "INSTELLINGSCODE": "03OY", "INSTELLINGSNAAM": "Niftarlake College Christelijke Scholengemeenschap voor Atheneum Havo Mavo", "STRAATNAAM": "Pauwenkamp", "HUISNUMMER-TOEVOEGING": "151", "POSTCODE": "3607 GK", "PLAATSNAAM": "MAARSSEN", "GEMEENTENUMMER": "1904", "GEMEENTENAAM": "STICHTSE VECHT", "DENOMINATIE": "Bijzonder", "TELEFOONNUMMER": "0346567772", "INTERNETADRES": "www.niftarlake.nl", "ONDERWIJSSTRUCTUUR": "MAVO/HAVO/VWO", "STRAATNAAM CORRESPONDENTIEADRES": "Pauwenkamp", "HUISNUMMER-TOEVOEGING CORRESPONDENTIEADRES": "151", "POSTCODE CORRESPONDENTIEADRES": "3607 GK", "PLAATSNAAM CORRESPONDENTIEADRES": "MAARSSEN", "NODAAL GEBIED CODE": "36", "NODAAL GEBIED NAAM": "Utrecht", "RPA-GEBIED CODE": "18", "RPA-GEBIED NAAM": "Utrecht-Midden", "WGR-GEBIED CODE": "19", "WGR-GEBIED NAAM": "Utrecht", "COROPGEBIED CODE": "17", "COROPGEBIED NAAM": "Utrecht", "ONDERWIJSGEBIED CODE": "13", "ONDERWIJSGEBIED NAAM": "Utrecht en omstreken", "RMC-REGIO CODE": "19", "RMC-REGIO NAAM": "Utrecht" }, "geometry": { "type": "Point", "coordinates": [ 5.0239314, 52.13508285 ] } },
{ "type": "Feature", "properties": { "PROVINCIE": "Utrecht", "BEVOEGD GEZAG NUMMER": "40094", "INSTELLINGSCODE": "07BM", "INSTELLINGSNAAM": "De Baanbreker, school voor praktijkonderwijs", "STRAATNAAM": "Baden Powellweg", "HUISNUMMER-TOEVOEGING": "1", "POSTCODE": "3401 RR", "PLAATSNAAM": "IJSSELSTEIN", "GEMEENTENUMMER": "0353", "GEMEENTENAAM": "IJSSELSTEIN", "DENOMINATIE": "Bijzonder", "TELEFOONNUMMER": "0306886699", "INTERNETADRES": "www.svp-debaanbreker.nl", "ONDERWIJSSTRUCTUUR": "PRO", "STRAATNAAM CORRESPONDENTIEADRES": "Baden Powellweg", "HUISNUMMER-TOEVOEGING CORRESPONDENTIEADRES": "1", "POSTCODE CORRESPONDENTIEADRES": "3401 RR", "PLAATSNAAM CORRESPONDENTIEADRES": "IJSSELSTEIN", "NODAAL GEBIED CODE": "36", "NODAAL GEBIED NAAM": "Utrecht", "RPA-GEBIED CODE": "18", "RPA-GEBIED NAAM": "Utrecht-Midden", "WGR-GEBIED CODE": "19", "WGR-GEBIED NAAM": "Utrecht", "COROPGEBIED CODE": "17", "COROPGEBIED NAAM": "Utrecht", "ONDERWIJSGEBIED CODE": "13", "ONDERWIJSGEBIED NAAM": "Utrecht en omstreken", "RMC-REGIO CODE": "19", "RMC-REGIO NAAM": "Utrecht" }, "geometry": { "type": "Point", "coordinates": [ 5.05024475, 52.01727675 ] } },
{ "type": "Feature", "properties": { "PROVINCIE": "Utrecht", "BEVOEGD GEZAG NUMMER": "40094", "INSTELLINGSCODE": "14OY", "INSTELLINGSNAAM": "Gerrit Rietveld College", "STRAATNAAM": "Eykmanlaan", "HUISNUMMER-TOEVOEGING": "1200", "POSTCODE": "3571 KH", "PLAATSNAAM": "UTRECHT", "GEMEENTENUMMER": "0344", "GEMEENTENAAM": "UTRECHT", "DENOMINATIE": "Bijzonder", "TELEFOONNUMMER": "0302712214", "INTERNETADRES": "www.gerritrietveldcollege.nl", "ONDERWIJSSTRUCTUUR": "MAVO/HAVO/VWO", "STRAATNAAM CORRESPONDENTIEADRES": "Eykmanlaan", "HUISNUMMER-TOEVOEGING CORRESPONDENTIEADRES": "1200", "POSTCODE CORRESPONDENTIEADRES": "3571 KH", "PLAATSNAAM CORRESPONDENTIEADRES": "UTRECHT", "NODAAL GEBIED CODE": "36", "NODAAL GEBIED NAAM": "Utrecht", "RPA-GEBIED CODE": "18", "RPA-GEBIED NAAM": "Utrecht-Midden", "WGR-GEBIED CODE": "19", "WGR-GEBIED NAAM": "Utrecht", "COROPGEBIED CODE": "17", "COROPGEBIED NAAM": "Utrecht", "ONDERWIJSGEBIED CODE": "13", "ONDERWIJSGEBIED NAAM": "Utrecht en omstreken", "RMC-REGIO CODE": "19", "RMC-REGIO NAAM": "Utrecht" }, "geometry": { "type": "Point", "coordinates": [ 5.1373027, 52.110577 ] } },
{ "type": "Feature", "properties": { "PROVINCIE": "Utrecht", "BEVOEGD GEZAG NUMMER": "40094", "INSTELLINGSCODE": "16PA", "INSTELLINGSNAAM": "Christelijk Gymnasium", "STRAATNAAM": "Koningsbergerstraat", "HUISNUMMER-TOEVOEGING": "2", "POSTCODE": "3531 AJ", "PLAATSNAAM": "UTRECHT", "GEMEENTENUMMER": "0344", "GEMEENTENAAM": "UTRECHT", "DENOMINATIE": "Bijzonder", "TELEFOONNUMMER": "0302843000", "INTERNETADRES": "www.cgu.nl", "ONDERWIJSSTRUCTUUR": "VWO", "STRAATNAAM CORRESPONDENTIEADRES": "Koningsbergerstraat", "HUISNUMMER-TOEVOEGING CORRESPONDENTIEADRES": "2", "POSTCODE CORRESPONDENTIEADRES": "3531 AJ", "PLAATSNAAM CORRESPONDENTIEADRES": "UTRECHT", "NODAAL GEBIED CODE": "36", "NODAAL GEBIED NAAM": "Utrecht", "RPA-GEBIED CODE": "18", "RPA-GEBIED NAAM": "Utrecht-Midden", "WGR-GEBIED CODE": "19", "WGR-GEBIED NAAM": "Utrecht", "COROPGEBIED CODE": "17", "COROPGEBIED NAAM": "Utrecht", "ONDERWIJSGEBIED CODE": "13", "ONDERWIJSGEBIED NAAM": "Utrecht en omstreken", "RMC-REGIO CODE": "19", "RMC-REGIO NAAM": "Utrecht" }, "geometry": { "type": "Point", "coordinates": [ 5.099314, 52.0879065 ] } },
{ "type": "Feature", "properties": { "PROVINCIE": "Utrecht", "BEVOEGD GEZAG NUMMER": "40094", "INSTELLINGSCODE": "17GM", "INSTELLINGSNAAM": "Oosterlicht College PC SGM V ATH HAVO MAVO VBO", "STRAATNAAM": "Dieselbaan", "HUISNUMMER-TOEVOEGING": "10", "POSTCODE": "3439 MV", "PLAATSNAAM": "NIEUWEGEIN", "GEMEENTENUMMER": "0356", "GEMEENTENAAM": "NIEUWEGEIN", "DENOMINATIE": "Bijzonder", "TELEFOONNUMMER": "0306004800", "INTERNETADRES": "www.oosterlicht.nl", "ONDERWIJSSTRUCTUUR": "VBO/MAVO/HAVO/VWO", "STRAATNAAM CORRESPONDENTIEADRES": "Postbus", "HUISNUMMER-TOEVOEGING CORRESPONDENTIEADRES": "1100", "POSTCODE CORRESPONDENTIEADRES": "3430 BC", "PLAATSNAAM CORRESPONDENTIEADRES": "NIEUWEGEIN", "NODAAL GEBIED CODE": "36", "NODAAL GEBIED NAAM": "Utrecht", "RPA-GEBIED CODE": "18", "RPA-GEBIED NAAM": "Utrecht-Midden", "WGR-GEBIED CODE": "19", "WGR-GEBIED NAAM": "Utrecht", "COROPGEBIED CODE": "17", "COROPGEBIED NAAM": "Utrecht", "ONDERWIJSGEBIED CODE": "13", "ONDERWIJSGEBIED NAAM": "Utrecht en omstreken", "RMC-REGIO CODE": "19", "RMC-REGIO NAAM": "Utrecht" }, "geometry": { "type": "Point", "coordinates": [ 5.09783945, 52.0300593 ] } },
{ "type": "Feature", "properties": { "PROVINCIE": "Utrecht", "BEVOEGD GEZAG NUMMER": "40094", "INSTELLINGSCODE": "18AN", "INSTELLINGSNAAM": "Globe College, brede school voor vmbo, basis, kader en theoretische leerweg", "STRAATNAAM": "Bontekoelaan", "HUISNUMMER-TOEVOEGING": "1", "POSTCODE": "3526 RA", "PLAATSNAAM": "UTRECHT", "GEMEENTENUMMER": "0344", "GEMEENTENAAM": "UTRECHT", "DENOMINATIE": "Bijzonder", "TELEFOONNUMMER": "0305112000", "INTERNETADRES": "https://www.globecollege.nl", "ONDERWIJSSTRUCTUUR": "VBO/MAVO", "STRAATNAAM CORRESPONDENTIEADRES": "Bontekoelaan", "HUISNUMMER-TOEVOEGING CORRESPONDENTIEADRES": "1", "POSTCODE CORRESPONDENTIEADRES": "3526 RA", "PLAATSNAAM CORRESPONDENTIEADRES": "UTRECHT", "NODAAL GEBIED CODE": "36", "NODAAL GEBIED NAAM": "Utrecht", "RPA-GEBIED CODE": "18", "RPA-GEBIED NAAM": "Utrecht-Midden", "WGR-GEBIED CODE": "19", "WGR-GEBIED NAAM": "Utrecht", "COROPGEBIED CODE": "17", "COROPGEBIED NAAM": "Utrecht", "ONDERWIJSGEBIED CODE": "13", "ONDERWIJSGEBIED NAAM": "Utrecht en omstreken", "RMC-REGIO CODE": "19", "RMC-REGIO NAAM": "Utrecht" }, "geometry": { "type": "Point", "coordinates": [ 5.0959064, 52.0671015 ] } },
{ "type": "Feature", "properties": { "PROVINCIE": "Utrecht", "BEVOEGD GEZAG NUMMER": "40094", "INSTELLINGSCODE": "23VD", "INSTELLINGSNAAM": "Broeckland College voor Mavo Vbo Lwoo", "STRAATNAAM": "Engel de Ruijterstraat", "HUISNUMMER-TOEVOEGING": "40", "POSTCODE": "3621 CV", "PLAATSNAAM": "BREUKELEN", "GEMEENTENUMMER": "1904", "GEMEENTENAAM": "STICHTSE VECHT", "DENOMINATIE": "Bijzonder", "TELEFOONNUMMER": "0364262408", "INTERNETADRES": "www.broeckland.nl", "ONDERWIJSSTRUCTUUR": "VBO/MAVO", "STRAATNAAM CORRESPONDENTIEADRES": "Engel de Ruijterstraat", "HUISNUMMER-TOEVOEGING CORRESPONDENTIEADRES": "40", "POSTCODE CORRESPONDENTIEADRES": "3621 CV", "PLAATSNAAM CORRESPONDENTIEADRES": "BREUKELEN", "NODAAL GEBIED CODE": "36", "NODAAL GEBIED NAAM": "Utrecht", "RPA-GEBIED CODE": "18", "RPA-GEBIED NAAM": "Utrecht-Midden", "WGR-GEBIED CODE": "19", "WGR-GEBIED NAAM": "Utrecht", "COROPGEBIED CODE": "17", "COROPGEBIED NAAM": "Utrecht", "ONDERWIJSGEBIED CODE": "13", "ONDERWIJSGEBIED NAAM": "Utrecht en omstreken", "RMC-REGIO CODE": "19", "RMC-REGIO NAAM": "Utrecht" }, "geometry": { "type": "Point", "coordinates": [ 4.9984819, 52.1699926 ] } },
{ "type": "Feature", "properties": { "PROVINCIE": "Utrecht", "BEVOEGD GEZAG NUMMER": "40132", "INSTELLINGSCODE": "02VR", "INSTELLINGSNAAM": "Christelijk Lyceum Zeist voor VWO HAVO MAVO VMBO LWOO", "STRAATNAAM": "Lindenlaan", "HUISNUMMER-TOEVOEGING": "23", "POSTCODE": "3707 EP", "PLAATSNAAM": "ZEIST", "GEMEENTENUMMER": "0355", "GEMEENTENAAM": "ZEIST", "DENOMINATIE": "Bijzonder", "TELEFOONNUMMER": "0343489911", "INTERNETADRES": "www.cvog.nl", "ONDERWIJSSTRUCTUUR": "VBO/MAVO/HAVO/VWO", "STRAATNAAM CORRESPONDENTIEADRES": "Postbus", "HUISNUMMER-TOEVOEGING CORRESPONDENTIEADRES": "550", "POSTCODE CORRESPONDENTIEADRES": "3700 AN", "PLAATSNAAM CORRESPONDENTIEADRES": "ZEIST", "NODAAL GEBIED CODE": "36", "NODAAL GEBIED NAAM": "Utrecht", "RPA-GEBIED CODE": "18", "RPA-GEBIED NAAM": "Utrecht-Midden", "WGR-GEBIED CODE": "19", "WGR-GEBIED NAAM": "Utrecht", "COROPGEBIED CODE": "17", "COROPGEBIED NAAM": "Utrecht", "ONDERWIJSGEBIED CODE": "13", "ONDERWIJSGEBIED NAAM": "Utrecht en omstreken", "RMC-REGIO CODE": "19", "RMC-REGIO NAAM": "Utrecht" }, "geometry": { "type": "Point", "coordinates": [ 5.25781785, 52.09163515 ] } },
{ "type": "Feature", "properties": { "PROVINCIE": "Utrecht", "BEVOEGD GEZAG NUMMER": "40132", "INSTELLINGSCODE": "26HY", "INSTELLINGSNAAM": "Seyster College voor Praktijkonderwijs", "STRAATNAAM": "Bergweg", "HUISNUMMER-TOEVOEGING": "97", "POSTCODE": "3707 AC", "PLAATSNAAM": "ZEIST", "GEMEENTENUMMER": "0355", "GEMEENTENAAM": "ZEIST", "DENOMINATIE": "Bijzonder", "TELEFOONNUMMER": "0343489911", "INTERNETADRES": "www.seystercollege.nl", "ONDERWIJSSTRUCTUUR": "PRO", "STRAATNAAM CORRESPONDENTIEADRES": "Postbus", "HUISNUMMER-TOEVOEGING CORRESPONDENTIEADRES": "550", "POSTCODE CORRESPONDENTIEADRES": "3700 AN", "PLAATSNAAM CORRESPONDENTIEADRES": "ZEIST", "NODAAL GEBIED CODE": "36", "NODAAL GEBIED NAAM": "Utrecht", "RPA-GEBIED CODE": "18", "RPA-GEBIED NAAM": "Utrecht-Midden", "WGR-GEBIED CODE": "19", "WGR-GEBIED NAAM": "Utrecht", "COROPGEBIED CODE": "17", "COROPGEBIED NAAM": "Utrecht", "ONDERWIJSGEBIED CODE": "13", "ONDERWIJSGEBIED NAAM": "Utrecht en omstreken", "RMC-REGIO CODE": "19", "RMC-REGIO NAAM": "Utrecht" }, "geometry": { "type": "Point", "coordinates": [ 5.24897935, 52.09860595 ] } },
{ "type": "Feature", "properties": { "PROVINCIE": "Utrecht", "BEVOEGD GEZAG NUMMER": "40180", "INSTELLINGSCODE": "00ML", "INSTELLINGSNAAM": "Meridiaancollege RK SGM v Lyc Havo Mavo Vbo Lwoo", "STRAATNAAM": "Daam Fockemalaan", "HUISNUMMER-TOEVOEGING": "12", "POSTCODE": "3818 KG", "PLAATSNAAM": "AMERSFOORT", "GEMEENTENUMMER": "0307", "GEMEENTENAAM": "AMERSFOORT", "DENOMINATIE": "Bijzonder", "TELEFOONNUMMER": "0334612984", "INTERNETADRES": "www.hetnieuweeemland.nl", "ONDERWIJSSTRUCTUUR": "VBO/MAVO/HAVO/VWO", "STRAATNAAM CORRESPONDENTIEADRES": "Postbus", "HUISNUMMER-TOEVOEGING CORRESPONDENTIEADRES": "637", "POSTCODE CORRESPONDENTIEADRES": "3800 AP", "PLAATSNAAM CORRESPONDENTIEADRES": "AMERSFOORT", "NODAAL GEBIED CODE": "35", "NODAAL GEBIED NAAM": "Amersfoort", "RPA-GEBIED CODE": "17", "RPA-GEBIED NAAM": "Eemland", "WGR-GEBIED CODE": "16", "WGR-GEBIED NAAM": "Eem en Vallei", "COROPGEBIED CODE": "17", "COROPGEBIED NAAM": "Utrecht", "ONDERWIJSGEBIED CODE": "10", "ONDERWIJSGEBIED NAAM": "Harderwijk-Amersfoort", "RMC-REGIO CODE": "16", "RMC-REGIO NAAM": "Eem en Vallei" }, "geometry": { "type": "Point", "coordinates": [ 5.3550328, 52.14186285 ] } },
{ "type": "Feature", "properties": { "PROVINCIE": "Utrecht", "BEVOEGD GEZAG NUMMER": "40180", "INSTELLINGSCODE": "14RC", "INSTELLINGSNAAM": "Meerscholen", "STRAATNAAM": "Paladijnenweg", "HUISNUMMER-TOEVOEGING": "101", "POSTCODE": "3813 DC", "PLAATSNAAM": "AMERSFOORT", "GEMEENTENUMMER": "0307", "GEMEENTENAAM": "AMERSFOORT", "DENOMINATIE": "Bijzonder", "TELEFOONNUMMER": "0334229020", "INTERNETADRES": "www.farel.nl", "ONDERWIJSSTRUCTUUR": "VBO/MAVO/HAVO/VWO", "STRAATNAAM CORRESPONDENTIEADRES": "Paladijnenweg", "HUISNUMMER-TOEVOEGING CORRESPONDENTIEADRES": "101", "POSTCODE CORRESPONDENTIEADRES": "3813 DC", "PLAATSNAAM CORRESPONDENTIEADRES": "AMERSFOORT", "NODAAL GEBIED CODE": "35", "NODAAL GEBIED NAAM": "Amersfoort", "RPA-GEBIED CODE": "17", "RPA-GEBIED NAAM": "Eemland", "WGR-GEBIED CODE": "16", "WGR-GEBIED NAAM": "Eem en Vallei", "COROPGEBIED CODE": "17", "COROPGEBIED NAAM": "Utrecht", "ONDERWIJSGEBIED CODE": "10", "ONDERWIJSGEBIED NAAM": "Harderwijk-Amersfoort", "RMC-REGIO CODE": "16", "RMC-REGIO NAAM": "Eem en Vallei" }, "geometry": { "type": "Point", "coordinates": [ 5.38477265, 52.16845865 ] } },
{ "type": "Feature", "properties": { "PROVINCIE": "Utrecht", "BEVOEGD GEZAG NUMMER": "40180", "INSTELLINGSCODE": "28CA", "INSTELLINGSNAAM": "PRO33 college (Accent Amersfoort)", "STRAATNAAM": "Wiekslag", "HUISNUMMER-TOEVOEGING": "50", "POSTCODE": "3815 GS", "PLAATSNAAM": "AMERSFOORT", "GEMEENTENUMMER": "0307", "GEMEENTENAAM": "AMERSFOORT", "DENOMINATIE": "Bijzonder", "TELEFOONNUMMER": "0334450333", "INTERNETADRES": "www.pro33college.nl", "ONDERWIJSSTRUCTUUR": "PRO", "STRAATNAAM CORRESPONDENTIEADRES": "Wiekslag", "HUISNUMMER-TOEVOEGING CORRESPONDENTIEADRES": "50", "POSTCODE CORRESPONDENTIEADRES": "3815 GS", "PLAATSNAAM CORRESPONDENTIEADRES": "AMERSFOORT", "NODAAL GEBIED CODE": "35", "NODAAL GEBIED NAAM": "Amersfoort", "RPA-GEBIED CODE": "17", "RPA-GEBIED NAAM": "Eemland", "WGR-GEBIED CODE": "16", "WGR-GEBIED NAAM": "Eem en Vallei", "COROPGEBIED CODE": "17", "COROPGEBIED NAAM": "Utrecht", "ONDERWIJSGEBIED CODE": "10", "ONDERWIJSGEBIED NAAM": "Harderwijk-Amersfoort", "RMC-REGIO CODE": "16", "RMC-REGIO NAAM": "Eem en Vallei" }, "geometry": { "type": "Point", "coordinates": [ 5.40796775, 52.16708475 ] } },
{ "type": "Feature", "properties": { "PROVINCIE": "Utrecht", "BEVOEGD GEZAG NUMMER": "40209", "INSTELLINGSCODE": "04IX", "INSTELLINGSNAAM": "Kalsbeek College Christelijke Scholengemeenschap voor Vmbo, Havo, Ath. en Gymn.", "STRAATNAAM": "Jozef Israelslaan", "HUISNUMMER-TOEVOEGING": "56", "POSTCODE": "3443 CT", "PLAATSNAAM": "WOERDEN", "GEMEENTENUMMER": "0632", "GEMEENTENAAM": "WOERDEN", "DENOMINATIE": "Bijzonder", "TELEFOONNUMMER": "0348417694", "INTERNETADRES": "www.kalsbeek.nl", "ONDERWIJSSTRUCTUUR": "VBO/MAVO/HAVO/VWO", "STRAATNAAM CORRESPONDENTIEADRES": "Postbus", "HUISNUMMER-TOEVOEGING CORRESPONDENTIEADRES": "145", "POSTCODE CORRESPONDENTIEADRES": "3440 AC", "PLAATSNAAM CORRESPONDENTIEADRES": "WOERDEN", "NODAAL GEBIED CODE": "48", "NODAAL GEBIED NAAM": "Woerden", "RPA-GEBIED CODE": "18", "RPA-GEBIED NAAM": "Utrecht-Midden", "WGR-GEBIED CODE": "19", "WGR-GEBIED NAAM": "Utrecht", "COROPGEBIED CODE": "17", "COROPGEBIED NAAM": "Utrecht", "ONDERWIJSGEBIED CODE": "13", "ONDERWIJSGEBIED NAAM": "Utrecht en omstreken", "RMC-REGIO CODE": "19", "RMC-REGIO NAAM": "Utrecht" }, "geometry": { "type": "Point", "coordinates": [ 4.86991405, 52.09132565 ] } },
{ "type": "Feature", "properties": { "PROVINCIE": "Utrecht", "BEVOEGD GEZAG NUMMER": "40357", "INSTELLINGSCODE": "00YO", "INSTELLINGSNAAM": "Protestants Christelijk Mavo Waldheim", "STRAATNAAM": "Torenlaan", "HUISNUMMER-TOEVOEGING": "81", "POSTCODE": "3742 CS", "PLAATSNAAM": "BAARN", "GEMEENTENUMMER": "0308", "GEMEENTENAAM": "BAARN", "DENOMINATIE": "Bijzonder", "TELEFOONNUMMER": "0355429743", "INTERNETADRES": "www.waldheim.nl", "ONDERWIJSSTRUCTUUR": "MAVO", "STRAATNAAM CORRESPONDENTIEADRES": "Torenlaan", "HUISNUMMER-TOEVOEGING CORRESPONDENTIEADRES": "81", "POSTCODE CORRESPONDENTIEADRES": "3742 CS", "PLAATSNAAM CORRESPONDENTIEADRES": "BAARN", "NODAAL GEBIED CODE": "45", "NODAAL GEBIED NAAM": "Hilversum", "RPA-GEBIED CODE": "17", "RPA-GEBIED NAAM": "Eemland", "WGR-GEBIED CODE": "16", "WGR-GEBIED NAAM": "Eem en Vallei", "COROPGEBIED CODE": "17", "COROPGEBIED NAAM": "Utrecht", "ONDERWIJSGEBIED CODE": "15", "ONDERWIJSGEBIED NAAM": "Zuid-Noord-Holland", "RMC-REGIO CODE": "16", "RMC-REGIO NAAM": "Eem en Vallei" }, "geometry": { "type": "Point", "coordinates": [ 5.2909885, 52.2068283 ] } },
{ "type": "Feature", "properties": { "PROVINCIE": "Utrecht", "BEVOEGD GEZAG NUMMER": "40357", "INSTELLINGSCODE": "01NZ", "INSTELLINGSNAAM": "Christelijk College Griftland School voor Atheneum Havo en Mavo", "STRAATNAAM": "Noorderweg", "HUISNUMMER-TOEVOEGING": "79", "POSTCODE": "3761 EV", "PLAATSNAAM": "SOEST", "GEMEENTENUMMER": "0342", "GEMEENTENAAM": "SOEST", "DENOMINATIE": "Bijzonder", "TELEFOONNUMMER": "0356098200", "INTERNETADRES": "www.griftland.nl", "ONDERWIJSSTRUCTUUR": "MAVO/HAVO/VWO", "STRAATNAAM CORRESPONDENTIEADRES": "Postbus", "HUISNUMMER-TOEVOEGING CORRESPONDENTIEADRES": "316", "POSTCODE CORRESPONDENTIEADRES": "3760 AH", "PLAATSNAAM CORRESPONDENTIEADRES": "SOEST", "NODAAL GEBIED CODE": "35", "NODAAL GEBIED NAAM": "Amersfoort", "RPA-GEBIED CODE": "17", "RPA-GEBIED NAAM": "Eemland", "WGR-GEBIED CODE": "16", "WGR-GEBIED NAAM": "Eem en Vallei", "COROPGEBIED CODE": "17", "COROPGEBIED NAAM": "Utrecht", "ONDERWIJSGEBIED CODE": "10", "ONDERWIJSGEBIED NAAM": "Harderwijk-Amersfoort", "RMC-REGIO CODE": "16", "RMC-REGIO NAAM": "Eem en Vallei" }, "geometry": { "type": "Point", "coordinates": [ 5.29269515, 52.19181395 ] } },
{ "type": "Feature", "properties": { "PROVINCIE": "Utrecht", "BEVOEGD GEZAG NUMMER": "40505", "INSTELLINGSCODE": "00TL", "INSTELLINGSNAAM": "Het Nieuwe Lyceum Scholengemeenschap voor Gymnasium Atheneum en Havo", "STRAATNAAM": "Jan Steenlaan", "HUISNUMMER-TOEVOEGING": "38", "POSTCODE": "3723 BV", "PLAATSNAAM": "BILTHOVEN", "GEMEENTENUMMER": "0310", "GEMEENTENAAM": "DE BILT", "DENOMINATIE": "Bijzonder", "TELEFOONNUMMER": "0302283060", "INTERNETADRES": "www.hetnieuwelyceum.nl", "ONDERWIJSSTRUCTUUR": "HAVO/VWO", "STRAATNAAM CORRESPONDENTIEADRES": "Postbus", "HUISNUMMER-TOEVOEGING CORRESPONDENTIEADRES": "529", "POSTCODE CORRESPONDENTIEADRES": "3720 AM", "PLAATSNAAM CORRESPONDENTIEADRES": "BILTHOVEN", "NODAAL GEBIED CODE": "36", "NODAAL GEBIED NAAM": "Utrecht", "RPA-GEBIED CODE": "18", "RPA-GEBIED NAAM": "Utrecht-Midden", "WGR-GEBIED CODE": "19", "WGR-GEBIED NAAM": "Utrecht", "COROPGEBIED CODE": "17", "COROPGEBIED NAAM": "Utrecht", "ONDERWIJSGEBIED CODE": "13", "ONDERWIJSGEBIED NAAM": "Utrecht en omstreken", "RMC-REGIO CODE": "19", "RMC-REGIO NAAM": "Utrecht" }, "geometry": { "type": "Point", "coordinates": [ 5.20190155, 52.1320791 ] } },
{ "type": "Feature", "properties": { "PROVINCIE": "Utrecht", "BEVOEGD GEZAG NUMMER": "41100", "INSTELLINGSCODE": "01OE", "INSTELLINGSNAAM": "Yuverta", "STRAATNAAM": "De Molen", "HUISNUMMER-TOEVOEGING": "94", "POSTCODE": "3995 AX", "PLAATSNAAM": "HOUTEN", "GEMEENTENUMMER": "0321", "GEMEENTENAAM": "HOUTEN", "DENOMINATIE": "Algemeen bijzonder", "TELEFOONNUMMER": "0306345100", "INTERNETADRES": "www.yuverta.nl", "ONDERWIJSSTRUCTUUR": "VBO/MAVO/PRO/MBO", "STRAATNAAM CORRESPONDENTIEADRES": "Postbus", "HUISNUMMER-TOEVOEGING CORRESPONDENTIEADRES": "177", "POSTCODE CORRESPONDENTIEADRES": "3990 DD", "PLAATSNAAM CORRESPONDENTIEADRES": "HOUTEN", "NODAAL GEBIED CODE": "36", "NODAAL GEBIED NAAM": "Utrecht", "RPA-GEBIED CODE": "18", "RPA-GEBIED NAAM": "Utrecht-Midden", "WGR-GEBIED CODE": "19", "WGR-GEBIED NAAM": "Utrecht", "COROPGEBIED CODE": "17", "COROPGEBIED NAAM": "Utrecht", "ONDERWIJSGEBIED CODE": "13", "ONDERWIJSGEBIED NAAM": "Utrecht en omstreken", "RMC-REGIO CODE": "19", "RMC-REGIO NAAM": "Utrecht" }, "geometry": { "type": "Point", "coordinates": [ 5.17145795, 52.03120465 ] } },
{ "type": "Feature", "properties": { "PROVINCIE": "Utrecht", "BEVOEGD GEZAG NUMMER": "41142", "INSTELLINGSCODE": "27DG", "INSTELLINGSNAAM": "de Passie, Evangelische School voor Vmbo-tl, Havo, Vwo", "STRAATNAAM": "Zwarte Woud", "HUISNUMMER-TOEVOEGING": "211", "POSTCODE": "3524 SG", "PLAATSNAAM": "UTRECHT", "GEMEENTENUMMER": "0344", "GEMEENTENAAM": "UTRECHT", "DENOMINATIE": "Bijzonder", "TELEFOONNUMMER": "0883372800", "INTERNETADRES": "www.depassiescholen.nl", "ONDERWIJSSTRUCTUUR": "VBO/MAVO/HAVO/VWO", "STRAATNAAM CORRESPONDENTIEADRES": "Zwarte Woud", "HUISNUMMER-TOEVOEGING CORRESPONDENTIEADRES": "211", "POSTCODE CORRESPONDENTIEADRES": "3524 SG", "PLAATSNAAM CORRESPONDENTIEADRES": "UTRECHT", "NODAAL GEBIED CODE": "36", "NODAAL GEBIED NAAM": "Utrecht", "RPA-GEBIED CODE": "18", "RPA-GEBIED NAAM": "Utrecht-Midden", "WGR-GEBIED CODE": "19", "WGR-GEBIED NAAM": "Utrecht", "COROPGEBIED CODE": "17", "COROPGEBIED NAAM": "Utrecht", "ONDERWIJSGEBIED CODE": "13", "ONDERWIJSGEBIED NAAM": "Utrecht en omstreken", "RMC-REGIO CODE": "19", "RMC-REGIO NAAM": "Utrecht" }, "geometry": { "type": "Point", "coordinates": [ 5.1424479, 52.0638417 ] } },
{ "type": "Feature", "properties": { "PROVINCIE": "Utrecht", "BEVOEGD GEZAG NUMMER": "41208", "INSTELLINGSCODE": "20CK", "INSTELLINGSNAAM": "Joh van Oldenbarnevelt Gymnasium", "STRAATNAAM": "Thorbeckeplein", "HUISNUMMER-TOEVOEGING": "1", "POSTCODE": "3818 JL", "PLAATSNAAM": "AMERSFOORT", "GEMEENTENUMMER": "0307", "GEMEENTENAAM": "AMERSFOORT", "DENOMINATIE": "Openbaar", "TELEFOONNUMMER": "0334613944", "INTERNETADRES": "www.jvo.nl", "ONDERWIJSSTRUCTUUR": "VWO", "STRAATNAAM CORRESPONDENTIEADRES": "Thorbeckeplein", "HUISNUMMER-TOEVOEGING CORRESPONDENTIEADRES": "1", "POSTCODE CORRESPONDENTIEADRES": "3818 JL", "PLAATSNAAM CORRESPONDENTIEADRES": "AMERSFOORT", "NODAAL GEBIED CODE": "35", "NODAAL GEBIED NAAM": "Amersfoort", "RPA-GEBIED CODE": "17", "RPA-GEBIED NAAM": "Eemland", "WGR-GEBIED CODE": "16", "WGR-GEBIED NAAM": "Eem en Vallei", "COROPGEBIED CODE": "17", "COROPGEBIED NAAM": "Utrecht", "ONDERWIJSGEBIED CODE": "10", "ONDERWIJSGEBIED NAAM": "Harderwijk-Amersfoort", "RMC-REGIO CODE": "16", "RMC-REGIO NAAM": "Eem en Vallei" }, "geometry": { "type": "Point", "coordinates": [ 5.3687604, 52.15114175 ] } },
{ "type": "Feature", "properties": { "PROVINCIE": "Utrecht", "BEVOEGD GEZAG NUMMER": "41208", "INSTELLINGSCODE": "20EA", "INSTELLINGSNAAM": "Openbaar lyceum De Amersfoortse Berg", "STRAATNAAM": "Hooglandseweg-Noord", "HUISNUMMER-TOEVOEGING": "55", "POSTCODE": "3813 VD", "PLAATSNAAM": "AMERSFOORT", "GEMEENTENUMMER": "0307", "GEMEENTENAAM": "AMERSFOORT", "DENOMINATIE": "Openbaar", "TELEFOONNUMMER": "0334618845", "INTERNETADRES": "www.amersfoortseberg.nl", "ONDERWIJSSTRUCTUUR": "HAVO/VWO", "STRAATNAAM CORRESPONDENTIEADRES": "Hooglandseweg-Noord", "HUISNUMMER-TOEVOEGING CORRESPONDENTIEADRES": "55", "POSTCODE CORRESPONDENTIEADRES": "3813 VD", "PLAATSNAAM CORRESPONDENTIEADRES": "AMERSFOORT", "NODAAL GEBIED CODE": "35", "NODAAL GEBIED NAAM": "Amersfoort", "RPA-GEBIED CODE": "17", "RPA-GEBIED NAAM": "Eemland", "WGR-GEBIED CODE": "16", "WGR-GEBIED NAAM": "Eem en Vallei", "COROPGEBIED CODE": "17", "COROPGEBIED NAAM": "Utrecht", "ONDERWIJSGEBIED CODE": "10", "ONDERWIJSGEBIED NAAM": "Harderwijk-Amersfoort", "RMC-REGIO CODE": "16", "RMC-REGIO NAAM": "Eem en Vallei" }, "geometry": { "type": "Point", "coordinates": [ 5.37923665, 52.16413835 ] } },
{ "type": "Feature", "properties": { "PROVINCIE": "Utrecht", "BEVOEGD GEZAG NUMMER": "41208", "INSTELLINGSCODE": "20EI", "INSTELLINGSNAAM": "Vallei College voor Ath Havo Mavo Vbo Lwoo", "STRAATNAAM": "Paladijnenweg", "HUISNUMMER-TOEVOEGING": "611", "POSTCODE": "3813 KD", "PLAATSNAAM": "AMERSFOORT", "GEMEENTENUMMER": "0307", "GEMEENTENAAM": "AMERSFOORT", "DENOMINATIE": "Openbaar", "TELEFOONNUMMER": "0334750184", "INTERNETADRES": "www.t-atrium.nl", "ONDERWIJSSTRUCTUUR": "VBO/MAVO/HAVO/VWO/PRO", "STRAATNAAM CORRESPONDENTIEADRES": "Paladijnenweg", "HUISNUMMER-TOEVOEGING CORRESPONDENTIEADRES": "611", "POSTCODE CORRESPONDENTIEADRES": "3813 KD", "PLAATSNAAM CORRESPONDENTIEADRES": "AMERSFOORT", "NODAAL GEBIED CODE": "35", "NODAAL GEBIED NAAM": "Amersfoort", "RPA-GEBIED CODE": "17", "RPA-GEBIED NAAM": "Eemland", "WGR-GEBIED CODE": "16", "WGR-GEBIED NAAM": "Eem en Vallei", "COROPGEBIED CODE": "17", "COROPGEBIED NAAM": "Utrecht", "ONDERWIJSGEBIED CODE": "10", "ONDERWIJSGEBIED NAAM": "Harderwijk-Amersfoort", "RMC-REGIO CODE": "16", "RMC-REGIO NAAM": "Eem en Vallei" }, "geometry": { "type": "Point", "coordinates": [ 5.39103035, 52.16962625 ] } },
{ "type": "Feature", "properties": { "PROVINCIE": "Utrecht", "BEVOEGD GEZAG NUMMER": "41217", "INSTELLINGSCODE": "05RA", "INSTELLINGSNAAM": "Veenlanden College PC SGM v Mavo Havo Atheneum", "STRAATNAAM": "Diamant", "HUISNUMMER-TOEVOEGING": "9", "POSTCODE": "3641 XR", "PLAATSNAAM": "MIJDRECHT", "GEMEENTENUMMER": "0736", "GEMEENTENAAM": "DE RONDE VENEN", "DENOMINATIE": "Bijzonder", "TELEFOONNUMMER": "0297283459", "INTERNETADRES": "www.veenlandencollege.nl", "ONDERWIJSSTRUCTUUR": "MAVO/HAVO/VWO", "STRAATNAAM CORRESPONDENTIEADRES": "Diamant", "HUISNUMMER-TOEVOEGING CORRESPONDENTIEADRES": "9", "POSTCODE CORRESPONDENTIEADRES": "3641 XR", "PLAATSNAAM CORRESPONDENTIEADRES": "MIJDRECHT", "NODAAL GEBIED CODE": "44", "NODAAL GEBIED NAAM": "Amsterdam", "RPA-GEBIED CODE": "20", "RPA-GEBIED NAAM": "Zuidelijk Noord-Holland", "WGR-GEBIED CODE": "19", "WGR-GEBIED NAAM": "Utrecht", "COROPGEBIED CODE": "17", "COROPGEBIED NAAM": "Utrecht", "ONDERWIJSGEBIED CODE": "15", "ONDERWIJSGEBIED NAAM": "Zuid-Noord-Holland", "RMC-REGIO CODE": "19", "RMC-REGIO NAAM": "Utrecht" }, "geometry": { "type": "Point", "coordinates": [ 4.8604362, 52.21553875 ] } },
{ "type": "Feature", "properties": { "PROVINCIE": "Utrecht", "BEVOEGD GEZAG NUMMER": "41300", "INSTELLINGSCODE": "02MF", "INSTELLINGSNAAM": "Het Perron voor VMBO en Praktijkonderwijs", "STRAATNAAM": "Sportlaan", "HUISNUMMER-TOEVOEGING": "11-13", "POSTCODE": "3905 AD", "PLAATSNAAM": "VEENENDAAL", "GEMEENTENUMMER": "0345", "GEMEENTENAAM": "VEENENDAAL", "DENOMINATIE": "Bijzonder", "TELEFOONNUMMER": "0318509600", "INTERNETADRES": "www.hetperron.nl", "ONDERWIJSSTRUCTUUR": "VBO/MAVO/PRO", "STRAATNAAM CORRESPONDENTIEADRES": "Postbus", "HUISNUMMER-TOEVOEGING CORRESPONDENTIEADRES": "234", "POSTCODE CORRESPONDENTIEADRES": "3900 AE", "PLAATSNAAM CORRESPONDENTIEADRES": "VEENENDAAL", "NODAAL GEBIED CODE": "34", "NODAAL GEBIED NAAM": "Veenendaal", "RPA-GEBIED CODE": "10", "RPA-GEBIED NAAM": "De Vallei", "WGR-GEBIED CODE": "16", "WGR-GEBIED NAAM": "Eem en Vallei", "COROPGEBIED CODE": "17", "COROPGEBIED NAAM": "Utrecht", "ONDERWIJSGEBIED CODE": "13", "ONDERWIJSGEBIED NAAM": "Utrecht en omstreken", "RMC-REGIO CODE": "16", "RMC-REGIO NAAM": "Eem en Vallei" }, "geometry": { "type": "Point", "coordinates": [ 5.5432076, 52.02654905 ] } },
{ "type": "Feature", "properties": { "PROVINCIE": "Utrecht", "BEVOEGD GEZAG NUMMER": "41475", "INSTELLINGSCODE": "07KP", "INSTELLINGSNAAM": "NXT Maarsbergen voor openbaar mavo, vmbo", "STRAATNAAM": "Woudenbergseweg", "HUISNUMMER-TOEVOEGING": "22-A", "POSTCODE": "3953 MG", "PLAATSNAAM": "MAARSBERGEN", "GEMEENTENUMMER": "1581", "GEMEENTENAAM": "UTRECHTSE HEUVELRUG", "DENOMINATIE": "Openbaar", "TELEFOONNUMMER": "0343431345", "INTERNETADRES": "www.nxt.eu/maarsbergen", "ONDERWIJSSTRUCTUUR": "VBO/MAVO", "STRAATNAAM CORRESPONDENTIEADRES": "Postbus", "HUISNUMMER-TOEVOEGING CORRESPONDENTIEADRES": "1415", "POSTCODE CORRESPONDENTIEADRES": "3500 BK", "PLAATSNAAM CORRESPONDENTIEADRES": "UTRECHT", "NODAAL GEBIED CODE": "36", "NODAAL GEBIED NAAM": "Utrecht", "RPA-GEBIED CODE": "18", "RPA-GEBIED NAAM": "Utrecht-Midden", "WGR-GEBIED CODE": "19", "WGR-GEBIED NAAM": "Utrecht", "COROPGEBIED CODE": "17", "COROPGEBIED NAAM": "Utrecht", "ONDERWIJSGEBIED CODE": "13", "ONDERWIJSGEBIED NAAM": "Utrecht en omstreken", "RMC-REGIO CODE": "19", "RMC-REGIO NAAM": "Utrecht" }, "geometry": { "type": "Point", "coordinates": [ 5.4131032, 52.0368957 ] } },
{ "type": "Feature", "properties": { "PROVINCIE": "Utrecht", "BEVOEGD GEZAG NUMMER": "41475", "INSTELLINGSCODE": "15JM", "INSTELLINGSNAAM": "Utrechts Stedelijk Gymnasium, openbare school voor vwo", "STRAATNAAM": "Ina Boudier-Bakkerlaan", "HUISNUMMER-TOEVOEGING": "7", "POSTCODE": "3582 VA", "PLAATSNAAM": "UTRECHT", "GEMEENTENUMMER": "0344", "GEMEENTENAAM": "UTRECHT", "DENOMINATIE": "Openbaar", "TELEFOONNUMMER": "0302122199", "INTERNETADRES": "www.usgym.nl/", "ONDERWIJSSTRUCTUUR": "VWO", "STRAATNAAM CORRESPONDENTIEADRES": "Postbus", "HUISNUMMER-TOEVOEGING CORRESPONDENTIEADRES": "1415", "POSTCODE CORRESPONDENTIEADRES": "3500 BK", "PLAATSNAAM CORRESPONDENTIEADRES": "UTRECHT", "NODAAL GEBIED CODE": "36", "NODAAL GEBIED NAAM": "Utrecht", "RPA-GEBIED CODE": "18", "RPA-GEBIED NAAM": "Utrecht-Midden", "WGR-GEBIED CODE": "19", "WGR-GEBIED NAAM": "Utrecht", "COROPGEBIED CODE": "17", "COROPGEBIED NAAM": "Utrecht", "ONDERWIJSGEBIED CODE": "13", "ONDERWIJSGEBIED NAAM": "Utrecht en omstreken", "RMC-REGIO CODE": "19", "RMC-REGIO NAAM": "Utrecht" }, "geometry": { "type": "Point", "coordinates": [ 5.1345448, 52.081773 ] } },
{ "type": "Feature", "properties": { "PROVINCIE": "Utrecht", "BEVOEGD GEZAG NUMMER": "41475", "INSTELLINGSCODE": "17AO", "INSTELLINGSNAAM": "POUWER, openbare school voor praktijkonderwijs", "STRAATNAAM": "La Bohemedreef", "HUISNUMMER-TOEVOEGING": "7", "POSTCODE": "3561 KW", "PLAATSNAAM": "UTRECHT", "GEMEENTENUMMER": "0344", "GEMEENTENAAM": "UTRECHT", "DENOMINATIE": "Openbaar", "TELEFOONNUMMER": "0302634690", "INTERNETADRES": "www.pouwersite.nl", "ONDERWIJSSTRUCTUUR": "PRO", "STRAATNAAM CORRESPONDENTIEADRES": "Postbus", "HUISNUMMER-TOEVOEGING CORRESPONDENTIEADRES": "1415", "POSTCODE CORRESPONDENTIEADRES": "3500 BK", "PLAATSNAAM CORRESPONDENTIEADRES": "UTRECHT", "NODAAL GEBIED CODE": "36", "NODAAL GEBIED NAAM": "Utrecht", "RPA-GEBIED CODE": "18", "RPA-GEBIED NAAM": "Utrecht-Midden", "WGR-GEBIED CODE": "19", "WGR-GEBIED NAAM": "Utrecht", "COROPGEBIED CODE": "17", "COROPGEBIED NAAM": "Utrecht", "ONDERWIJSGEBIED CODE": "13", "ONDERWIJSGEBIED NAAM": "Utrecht en omstreken", "RMC-REGIO CODE": "19", "RMC-REGIO NAAM": "Utrecht" }, "geometry": { "type": "Point", "coordinates": [ 5.11845675, 52.1124898 ] } },
{ "type": "Feature", "properties": { "PROVINCIE": "Utrecht", "BEVOEGD GEZAG NUMMER": "41475", "INSTELLINGSCODE": "17BI", "INSTELLINGSNAAM": "NUOVO Scholen, openbaar vmbo, mavo, havo, vwo", "STRAATNAAM": "Blikkenburgerlaan", "HUISNUMMER-TOEVOEGING": "2", "POSTCODE": "3703 CV", "PLAATSNAAM": "ZEIST", "GEMEENTENUMMER": "0355", "GEMEENTENAAM": "ZEIST", "DENOMINATIE": "Openbaar", "TELEFOONNUMMER": "0306982140", "INTERNETADRES": "www.openbaarlyceumzeist.nl", "ONDERWIJSSTRUCTUUR": "VBO/MAVO/HAVO/VWO", "STRAATNAAM CORRESPONDENTIEADRES": "Postbus", "HUISNUMMER-TOEVOEGING CORRESPONDENTIEADRES": "1415", "POSTCODE CORRESPONDENTIEADRES": "3500 BK", "PLAATSNAAM CORRESPONDENTIEADRES": "UTRECHT", "NODAAL GEBIED CODE": "36", "NODAAL GEBIED NAAM": "Utrecht", "RPA-GEBIED CODE": "18", "RPA-GEBIED NAAM": "Utrecht-Midden", "WGR-GEBIED CODE": "19", "WGR-GEBIED NAAM": "Utrecht", "COROPGEBIED CODE": "17", "COROPGEBIED NAAM": "Utrecht", "ONDERWIJSGEBIED CODE": "13", "ONDERWIJSGEBIED NAAM": "Utrecht en omstreken", "RMC-REGIO CODE": "19", "RMC-REGIO NAAM": "Utrecht" }, "geometry": { "type": "Point", "coordinates": [ 5.2405245, 52.07812725 ] } },
{ "type": "Feature", "properties": { "PROVINCIE": "Utrecht", "BEVOEGD GEZAG NUMMER": "41475", "INSTELLINGSCODE": "18WS", "INSTELLINGSNAAM": "Anna van Rijn College Openb. Scholengemeenschap voor Ath Havo Mavo", "STRAATNAAM": "Albatros", "HUISNUMMER-TOEVOEGING": "1", "POSTCODE": "3435 XA", "PLAATSNAAM": "NIEUWEGEIN", "GEMEENTENUMMER": "0356", "GEMEENTENAAM": "NIEUWEGEIN", "DENOMINATIE": "Openbaar", "TELEFOONNUMMER": "0306040900", "INTERNETADRES": "www.annavanrijn.nl", "ONDERWIJSSTRUCTUUR": "VBO/MAVO/HAVO/VWO", "STRAATNAAM CORRESPONDENTIEADRES": "Postbus", "HUISNUMMER-TOEVOEGING CORRESPONDENTIEADRES": "1415", "POSTCODE CORRESPONDENTIEADRES": "3500 BK", "PLAATSNAAM CORRESPONDENTIEADRES": "UTRECHT", "NODAAL GEBIED CODE": "36", "NODAAL GEBIED NAAM": "Utrecht", "RPA-GEBIED CODE": "18", "RPA-GEBIED NAAM": "Utrecht-Midden", "WGR-GEBIED CODE": "19", "WGR-GEBIED NAAM": "Utrecht", "COROPGEBIED CODE": "17", "COROPGEBIED NAAM": "Utrecht", "ONDERWIJSGEBIED CODE": "13", "ONDERWIJSGEBIED NAAM": "Utrecht en omstreken", "RMC-REGIO CODE": "19", "RMC-REGIO NAAM": "Utrecht" }, "geometry": { "type": "Point", "coordinates": [ 5.07607955, 52.02045225 ] } },
{ "type": "Feature", "properties": { "PROVINCIE": "Utrecht", "BEVOEGD GEZAG NUMMER": "41475", "INSTELLINGSCODE": "24TJ", "INSTELLINGSNAAM": "Trajectum College, openbare scholengemeenschap voor vbo en mavo", "STRAATNAAM": "Vader Rijndreef", "HUISNUMMER-TOEVOEGING": "9", "POSTCODE": "3561 XB", "PLAATSNAAM": "UTRECHT", "GEMEENTENUMMER": "0344", "GEMEENTENAAM": "UTRECHT", "DENOMINATIE": "Openbaar", "TELEFOONNUMMER": "0302646100", "INTERNETADRES": "www.trajectum-college.nl", "ONDERWIJSSTRUCTUUR": "VBO/MAVO", "STRAATNAAM CORRESPONDENTIEADRES": "Postbus", "HUISNUMMER-TOEVOEGING CORRESPONDENTIEADRES": "1415", "POSTCODE CORRESPONDENTIEADRES": "3500 BK", "PLAATSNAAM CORRESPONDENTIEADRES": "UTRECHT", "NODAAL GEBIED CODE": "36", "NODAAL GEBIED NAAM": "Utrecht", "RPA-GEBIED CODE": "18", "RPA-GEBIED NAAM": "Utrecht-Midden", "WGR-GEBIED CODE": "19", "WGR-GEBIED NAAM": "Utrecht", "COROPGEBIED CODE": "17", "COROPGEBIED NAAM": "Utrecht", "ONDERWIJSGEBIED CODE": "13", "ONDERWIJSGEBIED NAAM": "Utrecht en omstreken", "RMC-REGIO CODE": "19", "RMC-REGIO NAAM": "Utrecht" }, "geometry": { "type": "Point", "coordinates": [ 5.11514035, 52.10882085 ] } },
{ "type": "Feature", "properties": { "PROVINCIE": "Utrecht", "BEVOEGD GEZAG NUMMER": "41475", "INSTELLINGSCODE": "24TR", "INSTELLINGSNAAM": "NUOVO Scholen, opb. vmbo, havo, vwo", "STRAATNAAM": "Maartvlinder", "HUISNUMMER-TOEVOEGING": "1", "POSTCODE": "3544 DA", "PLAATSNAAM": "UTRECHT", "GEMEENTENUMMER": "0344", "GEMEENTENAAM": "UTRECHT", "DENOMINATIE": "Openbaar", "TELEFOONNUMMER": "0302933360", "INTERNETADRES": "www.lrc.nl", "ONDERWIJSSTRUCTUUR": "VBO/MAVO/HAVO/VWO", "STRAATNAAM CORRESPONDENTIEADRES": "Postbus", "HUISNUMMER-TOEVOEGING CORRESPONDENTIEADRES": "1415", "POSTCODE CORRESPONDENTIEADRES": "3500 BK", "PLAATSNAAM CORRESPONDENTIEADRES": "UTRECHT", "NODAAL GEBIED CODE": "36", "NODAAL GEBIED NAAM": "Utrecht", "RPA-GEBIED CODE": "18", "RPA-GEBIED NAAM": "Utrecht-Midden", "WGR-GEBIED CODE": "19", "WGR-GEBIED NAAM": "Utrecht", "COROPGEBIED CODE": "17", "COROPGEBIED NAAM": "Utrecht", "ONDERWIJSGEBIED CODE": "13", "ONDERWIJSGEBIED NAAM": "Utrecht en omstreken", "RMC-REGIO CODE": "19", "RMC-REGIO NAAM": "Utrecht" }, "geometry": { "type": "Point", "coordinates": [ 5.0617903, 52.0923442 ] } },
{ "type": "Feature", "properties": { "PROVINCIE": "Utrecht", "BEVOEGD GEZAG NUMMER": "41475", "INSTELLINGSCODE": "30UB", "INSTELLINGSNAAM": "UniC school voor vwo en havo", "STRAATNAAM": "Van Bijnkershoeklaan", "HUISNUMMER-TOEVOEGING": "2", "POSTCODE": "3527 XL", "PLAATSNAAM": "UTRECHT", "GEMEENTENUMMER": "0344", "GEMEENTENAAM": "UTRECHT", "DENOMINATIE": "Openbaar", "TELEFOONNUMMER": null, "INTERNETADRES": null, "ONDERWIJSSTRUCTUUR": "HAVO/VWO", "STRAATNAAM CORRESPONDENTIEADRES": "Postbus", "HUISNUMMER-TOEVOEGING CORRESPONDENTIEADRES": "1415", "POSTCODE CORRESPONDENTIEADRES": "3500 BK", "PLAATSNAAM CORRESPONDENTIEADRES": "UTRECHT", "NODAAL GEBIED CODE": "36", "NODAAL GEBIED NAAM": "Utrecht", "RPA-GEBIED CODE": "18", "RPA-GEBIED NAAM": "Utrecht-Midden", "WGR-GEBIED CODE": "19", "WGR-GEBIED NAAM": "Utrecht", "COROPGEBIED CODE": "17", "COROPGEBIED NAAM": "Utrecht", "ONDERWIJSGEBIED CODE": "13", "ONDERWIJSGEBIED NAAM": "Utrecht en omstreken", "RMC-REGIO CODE": "19", "RMC-REGIO NAAM": "Utrecht" }, "geometry": { "type": "Point", "coordinates": [ 5.0975066, 52.07847545 ] } },
{ "type": "Feature", "properties": { "PROVINCIE": "Utrecht", "BEVOEGD GEZAG NUMMER": "41769", "INSTELLINGSCODE": "03WO", "INSTELLINGSNAAM": "Van Lodensteincollege Scholengemeenschap voor Lyceum Havo Mavo Vbo Lwoo", "STRAATNAAM": "Utrechtseweg", "HUISNUMMER-TOEVOEGING": "228", "POSTCODE": "3818 ET", "PLAATSNAAM": "AMERSFOORT", "GEMEENTENUMMER": "0307", "GEMEENTENAAM": "AMERSFOORT", "DENOMINATIE": "Bijzonder", "TELEFOONNUMMER": "0334226400", "INTERNETADRES": "www.vanlodenstein.nl", "ONDERWIJSSTRUCTUUR": "VBO/MAVO/HAVO/VWO", "STRAATNAAM CORRESPONDENTIEADRES": "Postbus", "HUISNUMMER-TOEVOEGING CORRESPONDENTIEADRES": "180", "POSTCODE CORRESPONDENTIEADRES": "3800 AD", "PLAATSNAAM CORRESPONDENTIEADRES": "AMERSFOORT", "NODAAL GEBIED CODE": "35", "NODAAL GEBIED NAAM": "Amersfoort", "RPA-GEBIED CODE": "17", "RPA-GEBIED NAAM": "Eemland", "WGR-GEBIED CODE": "16", "WGR-GEBIED NAAM": "Eem en Vallei", "COROPGEBIED CODE": "17", "COROPGEBIED NAAM": "Utrecht", "ONDERWIJSGEBIED CODE": "10", "ONDERWIJSGEBIED NAAM": "Harderwijk-Amersfoort", "RMC-REGIO CODE": "16", "RMC-REGIO NAAM": "Eem en Vallei" }, "geometry": { "type": "Point", "coordinates": [ 5.3489905, 52.13842945 ] } },
{ "type": "Feature", "properties": { "PROVINCIE": "Utrecht", "BEVOEGD GEZAG NUMMER": "41820", "INSTELLINGSCODE": "32CY", "INSTELLINGSNAAM": "Al Amana", "STRAATNAAM": "Noordse Parklaan", "HUISNUMMER-TOEVOEGING": "4", "POSTCODE": "3513 GV", "PLAATSNAAM": "UTRECHT", "GEMEENTENUMMER": "0344", "GEMEENTENAAM": "UTRECHT", "DENOMINATIE": "Bijzonder", "TELEFOONNUMMER": null, "INTERNETADRES": null, "ONDERWIJSSTRUCTUUR": null, "STRAATNAAM CORRESPONDENTIEADRES": null, "HUISNUMMER-TOEVOEGING CORRESPONDENTIEADRES": null, "POSTCODE CORRESPONDENTIEADRES": null, "PLAATSNAAM CORRESPONDENTIEADRES": null, "NODAAL GEBIED CODE": "36", "NODAAL GEBIED NAAM": "Utrecht", "RPA-GEBIED CODE": "18", "RPA-GEBIED NAAM": "Utrecht-Midden", "WGR-GEBIED CODE": "19", "WGR-GEBIED NAAM": "Utrecht", "COROPGEBIED CODE": "17", "COROPGEBIED NAAM": "Utrecht", "ONDERWIJSGEBIED CODE": "13", "ONDERWIJSGEBIED NAAM": "Utrecht en omstreken", "RMC-REGIO CODE": "19", "RMC-REGIO NAAM": "Utrecht" }, "geometry": { "type": "Point", "coordinates": [ 5.1101468, 52.1032291 ] } },
{ "type": "Feature", "properties": { "PROVINCIE": "Utrecht", "BEVOEGD GEZAG NUMMER": "41897", "INSTELLINGSCODE": "11NY", "INSTELLINGSNAAM": "Regionale Scholengemeenschap Broklede voor Atheneum en Havo", "STRAATNAAM": "Schepersweg", "HUISNUMMER-TOEVOEGING": "6-A", "POSTCODE": "3621 JK", "PLAATSNAAM": "BREUKELEN", "GEMEENTENUMMER": "1904", "GEMEENTENAAM": "STICHTSE VECHT", "DENOMINATIE": "Openbaar", "TELEFOONNUMMER": "0346258060", "INTERNETADRES": "www.broklede.nl", "ONDERWIJSSTRUCTUUR": "HAVO/VWO", "STRAATNAAM CORRESPONDENTIEADRES": "Postbus", "HUISNUMMER-TOEVOEGING CORRESPONDENTIEADRES": "246", "POSTCODE CORRESPONDENTIEADRES": "3620 AE", "PLAATSNAAM CORRESPONDENTIEADRES": "BREUKELEN", "NODAAL GEBIED CODE": "36", "NODAAL GEBIED NAAM": "Utrecht", "RPA-GEBIED CODE": "18", "RPA-GEBIED NAAM": "Utrecht-Midden", "WGR-GEBIED CODE": "19", "WGR-GEBIED NAAM": "Utrecht", "COROPGEBIED CODE": "17", "COROPGEBIED NAAM": "Utrecht", "ONDERWIJSGEBIED CODE": "13", "ONDERWIJSGEBIED NAAM": "Utrecht en omstreken", "RMC-REGIO CODE": "19", "RMC-REGIO NAAM": "Utrecht" }, "geometry": { "type": "Point", "coordinates": [ 4.99590415, 52.1781702 ] } },
{ "type": "Feature", "properties": { "PROVINCIE": "Utrecht", "BEVOEGD GEZAG NUMMER": "41897", "INSTELLINGSCODE": "17HX", "INSTELLINGSNAAM": "Mgr A E Rientjes Mavo", "STRAATNAAM": "Valkenkamp", "HUISNUMMER-TOEVOEGING": "551", "POSTCODE": "3607 MJ", "PLAATSNAAM": "MAARSSEN", "GEMEENTENUMMER": "1904", "GEMEENTENAAM": "STICHTSE VECHT", "DENOMINATIE": "Bijzonder", "TELEFOONNUMMER": "0346561360", "INTERNETADRES": "www.rientjesmavo.nl", "ONDERWIJSSTRUCTUUR": "VBO/MAVO", "STRAATNAAM CORRESPONDENTIEADRES": "Valkenkamp", "HUISNUMMER-TOEVOEGING CORRESPONDENTIEADRES": "551", "POSTCODE CORRESPONDENTIEADRES": "3607 MJ", "PLAATSNAAM CORRESPONDENTIEADRES": "MAARSSEN", "NODAAL GEBIED CODE": "36", "NODAAL GEBIED NAAM": "Utrecht", "RPA-GEBIED CODE": "18", "RPA-GEBIED NAAM": "Utrecht-Midden", "WGR-GEBIED CODE": "19", "WGR-GEBIED NAAM": "Utrecht", "COROPGEBIED CODE": "17", "COROPGEBIED NAAM": "Utrecht", "ONDERWIJSGEBIED CODE": "13", "ONDERWIJSGEBIED NAAM": "Utrecht en omstreken", "RMC-REGIO CODE": "19", "RMC-REGIO NAAM": "Utrecht" }, "geometry": { "type": "Point", "coordinates": [ 5.01480535, 52.13737405 ] } },
{ "type": "Feature", "properties": { "PROVINCIE": "Utrecht", "BEVOEGD GEZAG NUMMER": "42718", "INSTELLINGSCODE": "31FH", "INSTELLINGSNAAM": "Pvo Utrecht voor havo en vwo", "STRAATNAAM": "Wittevrouwenkade", "HUISNUMMER-TOEVOEGING": "4", "POSTCODE": "3512 CR", "PLAATSNAAM": "UTRECHT", "GEMEENTENUMMER": "0344", "GEMEENTENAAM": "UTRECHT", "DENOMINATIE": "Bijzonder", "TELEFOONNUMMER": "0303074324", "INTERNETADRES": "www.persoonlijkvo.nl", "ONDERWIJSSTRUCTUUR": "HAVO/VWO", "STRAATNAAM CORRESPONDENTIEADRES": "Postbus", "HUISNUMMER-TOEVOEGING CORRESPONDENTIEADRES": "36274", "POSTCODE CORRESPONDENTIEADRES": "1020 MG", "PLAATSNAAM CORRESPONDENTIEADRES": "AMSTERDAM", "NODAAL GEBIED CODE": "36", "NODAAL GEBIED NAAM": "Utrecht", "RPA-GEBIED CODE": "18", "RPA-GEBIED NAAM": "Utrecht-Midden", "WGR-GEBIED CODE": "19", "WGR-GEBIED NAAM": "Utrecht", "COROPGEBIED CODE": "17", "COROPGEBIED NAAM": "Utrecht", "ONDERWIJSGEBIED CODE": "13", "ONDERWIJSGEBIED NAAM": "Utrecht en omstreken", "RMC-REGIO CODE": "19", "RMC-REGIO NAAM": "Utrecht" }, "geometry": { "type": "Point", "coordinates": [ 5.1258569, 52.09559035 ] } },
{ "type": "Feature", "properties": { "PROVINCIE": "Utrecht", "BEVOEGD GEZAG NUMMER": "42817", "INSTELLINGSCODE": "19IP", "INSTELLINGSNAAM": "Rembrandt College Openbare Scholengemeenschap voor Mavo Havo Ath", "STRAATNAAM": "Rembrandtlaan", "HUISNUMMER-TOEVOEGING": "2", "POSTCODE": "3904 ZK", "PLAATSNAAM": "VEENENDAAL", "GEMEENTENUMMER": "0345", "GEMEENTENAAM": "VEENENDAAL", "DENOMINATIE": "Openbaar", "TELEFOONNUMMER": "0318509900", "INTERNETADRES": "www.rembrandt-college.nl", "ONDERWIJSSTRUCTUUR": "MAVO/HAVO/VWO", "STRAATNAAM CORRESPONDENTIEADRES": "Postbus", "HUISNUMMER-TOEVOEGING CORRESPONDENTIEADRES": "292", "POSTCODE CORRESPONDENTIEADRES": "3900 AG", "PLAATSNAAM CORRESPONDENTIEADRES": "VEENENDAAL", "NODAAL GEBIED CODE": "34", "NODAAL GEBIED NAAM": "Veenendaal", "RPA-GEBIED CODE": "10", "RPA-GEBIED NAAM": "De Vallei", "WGR-GEBIED CODE": "16", "WGR-GEBIED NAAM": "Eem en Vallei", "COROPGEBIED CODE": "17", "COROPGEBIED NAAM": "Utrecht", "ONDERWIJSGEBIED CODE": "13", "ONDERWIJSGEBIED NAAM": "Utrecht en omstreken", "RMC-REGIO CODE": "16", "RMC-REGIO NAAM": "Eem en Vallei" }, "geometry": { "type": "Point", "coordinates": [ 5.547364, 52.0206129 ] } },
{ "type": "Feature", "properties": { "PROVINCIE": "Utrecht", "BEVOEGD GEZAG NUMMER": "45697", "INSTELLINGSCODE": "03SX", "INSTELLINGSNAAM": "De Baander", "STRAATNAAM": "Zangvogelweg", "HUISNUMMER-TOEVOEGING": "152", "POSTCODE": "3815 DR", "PLAATSNAAM": "AMERSFOORT", "GEMEENTENUMMER": "0307", "GEMEENTENAAM": "AMERSFOORT", "DENOMINATIE": "Bijzonder", "TELEFOONNUMMER": "0334723163", "INTERNETADRES": "www.debaander.nl", "ONDERWIJSSTRUCTUUR": "PRO", "STRAATNAAM CORRESPONDENTIEADRES": "Zangvogelweg", "HUISNUMMER-TOEVOEGING CORRESPONDENTIEADRES": "152", "POSTCODE CORRESPONDENTIEADRES": "3815 DR", "PLAATSNAAM CORRESPONDENTIEADRES": "AMERSFOORT", "NODAAL GEBIED CODE": "35", "NODAAL GEBIED NAAM": "Amersfoort", "RPA-GEBIED CODE": "17", "RPA-GEBIED NAAM": "Eemland", "WGR-GEBIED CODE": "16", "WGR-GEBIED NAAM": "Eem en Vallei", "COROPGEBIED CODE": "17", "COROPGEBIED NAAM": "Utrecht", "ONDERWIJSGEBIED CODE": "10", "ONDERWIJSGEBIED NAAM": "Harderwijk-Amersfoort", "RMC-REGIO CODE": "16", "RMC-REGIO NAAM": "Eem en Vallei" }, "geometry": { "type": "Point", "coordinates": [ 5.40227565, 52.1657632 ] } },
{ "type": "Feature", "properties": { "PROVINCIE": "Utrecht", "BEVOEGD GEZAG NUMMER": "49155", "INSTELLINGSCODE": "00VY", "INSTELLINGSNAAM": "Cals College Roomskatholiek Scholengemeenschap voor Lyceum Havo Mavo Vbo", "STRAATNAAM": "Vreeswijksestraatweg", "HUISNUMMER-TOEVOEGING": "6-A", "POSTCODE": "3432 NA", "PLAATSNAAM": "NIEUWEGEIN", "GEMEENTENUMMER": "0356", "GEMEENTENAAM": "NIEUWEGEIN", "DENOMINATIE": "Bijzonder", "TELEFOONNUMMER": "0306036604", "INTERNETADRES": "www.cals.nl", "ONDERWIJSSTRUCTUUR": "VBO/MAVO/HAVO/VWO", "STRAATNAAM CORRESPONDENTIEADRES": "Postbus", "HUISNUMMER-TOEVOEGING CORRESPONDENTIEADRES": "128", "POSTCODE CORRESPONDENTIEADRES": "3430 AC", "PLAATSNAAM CORRESPONDENTIEADRES": "NIEUWEGEIN", "NODAAL GEBIED CODE": "36", "NODAAL GEBIED NAAM": "Utrecht", "RPA-GEBIED CODE": "18", "RPA-GEBIED NAAM": "Utrecht-Midden", "WGR-GEBIED CODE": "19", "WGR-GEBIED NAAM": "Utrecht", "COROPGEBIED CODE": "17", "COROPGEBIED NAAM": "Utrecht", "ONDERWIJSGEBIED CODE": "13", "ONDERWIJSGEBIED NAAM": "Utrecht en omstreken", "RMC-REGIO CODE": "19", "RMC-REGIO NAAM": "Utrecht" }, "geometry": { "type": "Point", "coordinates": [ 5.09237475, 52.0282616 ] } },
{ "type": "Feature", "properties": { "PROVINCIE": "Utrecht", "BEVOEGD GEZAG NUMMER": "49155", "INSTELLINGSCODE": "22NE", "INSTELLINGSNAAM": "College de Heemlanden School voor havo en atheneum", "STRAATNAAM": "De Slinger", "HUISNUMMER-TOEVOEGING": "48", "POSTCODE": "3995 DE", "PLAATSNAAM": "HOUTEN", "GEMEENTENUMMER": "0321", "GEMEENTENAAM": "HOUTEN", "DENOMINATIE": "Bijzonder", "TELEFOONNUMMER": "0306379944", "INTERNETADRES": "www.heemlanden.nl", "ONDERWIJSSTRUCTUUR": "HAVO/VWO", "STRAATNAAM CORRESPONDENTIEADRES": "De Slinger", "HUISNUMMER-TOEVOEGING CORRESPONDENTIEADRES": "48", "POSTCODE CORRESPONDENTIEADRES": "3995 DE", "PLAATSNAAM CORRESPONDENTIEADRES": "HOUTEN", "NODAAL GEBIED CODE": "36", "NODAAL GEBIED NAAM": "Utrecht", "RPA-GEBIED CODE": "18", "RPA-GEBIED NAAM": "Utrecht-Midden", "WGR-GEBIED CODE": "19", "WGR-GEBIED NAAM": "Utrecht", "COROPGEBIED CODE": "17", "COROPGEBIED NAAM": "Utrecht", "ONDERWIJSGEBIED CODE": "13", "ONDERWIJSGEBIED NAAM": "Utrecht en omstreken", "RMC-REGIO CODE": "19", "RMC-REGIO NAAM": "Utrecht" }, "geometry": { "type": "Point", "coordinates": [ 5.1676202, 52.0332189 ] } },
{ "type": "Feature", "properties": { "PROVINCIE": "Utrecht", "BEVOEGD GEZAG NUMMER": "49155", "INSTELLINGSCODE": "30BE", "INSTELLINGSNAAM": "Houtens", "STRAATNAAM": "Kruisboog", "HUISNUMMER-TOEVOEGING": "1", "POSTCODE": "3994 AE", "PLAATSNAAM": "HOUTEN", "GEMEENTENUMMER": "0321", "GEMEENTENAAM": "HOUTEN", "DENOMINATIE": "Bijzonder", "TELEFOONNUMMER": "0306344297", "INTERNETADRES": "www.hethoutens.nl", "ONDERWIJSSTRUCTUUR": "VBO/MAVO", "STRAATNAAM CORRESPONDENTIEADRES": "Kruisboog", "HUISNUMMER-TOEVOEGING CORRESPONDENTIEADRES": "1", "POSTCODE CORRESPONDENTIEADRES": "3994 AE", "PLAATSNAAM CORRESPONDENTIEADRES": "HOUTEN", "NODAAL GEBIED CODE": "36", "NODAAL GEBIED NAAM": "Utrecht", "RPA-GEBIED CODE": "18", "RPA-GEBIED NAAM": "Utrecht-Midden", "WGR-GEBIED CODE": "19", "WGR-GEBIED NAAM": "Utrecht", "COROPGEBIED CODE": "17", "COROPGEBIED NAAM": "Utrecht", "ONDERWIJSGEBIED CODE": "13", "ONDERWIJSGEBIED NAAM": "Utrecht en omstreken", "RMC-REGIO CODE": "19", "RMC-REGIO NAAM": "Utrecht" }, "geometry": { "type": "Point", "coordinates": [ 5.18106945, 52.02927565 ] } },
{ "type": "Feature", "properties": { "PROVINCIE": "Utrecht", "BEVOEGD GEZAG NUMMER": "50953", "INSTELLINGSCODE": "32DR", "INSTELLINGSNAAM": "Focus College Amersfoort", "STRAATNAAM": "Softwareweg", "HUISNUMMER-TOEVOEGING": "7", "POSTCODE": "3821 BN", "PLAATSNAAM": "AMERSFOORT", "GEMEENTENUMMER": "0307", "GEMEENTENAAM": "AMERSFOORT", "DENOMINATIE": "Overige", "TELEFOONNUMMER": "0651051078", "INTERNETADRES": "www.focuscollege.nl", "ONDERWIJSSTRUCTUUR": null, "STRAATNAAM CORRESPONDENTIEADRES": "Softwareweg", "HUISNUMMER-TOEVOEGING CORRESPONDENTIEADRES": "7", "POSTCODE CORRESPONDENTIEADRES": "3821 BN", "PLAATSNAAM CORRESPONDENTIEADRES": "AMERSFOORT", "NODAAL GEBIED CODE": "35", "NODAAL GEBIED NAAM": "Amersfoort", "RPA-GEBIED CODE": "17", "RPA-GEBIED NAAM": "Eemland", "WGR-GEBIED CODE": "16", "WGR-GEBIED NAAM": "Eem en Vallei", "COROPGEBIED CODE": "17", "COROPGEBIED NAAM": "Utrecht", "ONDERWIJSGEBIED CODE": "10", "ONDERWIJSGEBIED NAAM": "Harderwijk-Amersfoort", "RMC-REGIO CODE": "16", "RMC-REGIO NAAM": "Eem en Vallei" }, "geometry": { "type": "Point", "coordinates": [ 5.41250175, 52.1727692 ] } },
{ "type": "Feature", "properties": { "PROVINCIE": "Utrecht", "BEVOEGD GEZAG NUMMER": "59282", "INSTELLINGSCODE": "17XU", "INSTELLINGSNAAM": "Heerenlanden College", "STRAATNAAM": "Eksterlaan", "HUISNUMMER-TOEVOEGING": "48", "POSTCODE": "4143 AC", "PLAATSNAAM": "LEERDAM", "GEMEENTENUMMER": "1961", "GEMEENTENAAM": "VIJFHEERENLANDEN", "DENOMINATIE": "Bijzonder", "TELEFOONNUMMER": "0345613531", "INTERNETADRES": "www.cvo-av.nl", "ONDERWIJSSTRUCTUUR": "VBO/MAVO/HAVO/VWO", "STRAATNAAM CORRESPONDENTIEADRES": "Eksterlaan", "HUISNUMMER-TOEVOEGING CORRESPONDENTIEADRES": "48", "POSTCODE CORRESPONDENTIEADRES": "4143 AC", "PLAATSNAAM CORRESPONDENTIEADRES": "LEERDAM", "NODAAL GEBIED CODE": "52", "NODAAL GEBIED NAAM": "Gorinchem", "RPA-GEBIED CODE": "18", "RPA-GEBIED NAAM": "Utrecht-Midden", "WGR-GEBIED CODE": "19", "WGR-GEBIED NAAM": "Utrecht", "COROPGEBIED CODE": "17", "COROPGEBIED NAAM": "Utrecht", "ONDERWIJSGEBIED CODE": "18", "ONDERWIJSGEBIED NAAM": "Dordrecht-Gorinchem", "RMC-REGIO CODE": "19", "RMC-REGIO NAAM": "Utrecht" }, "geometry": { "type": "Point", "coordinates": [ 5.09365795, 51.8974683 ] } },
{ "type": "Feature", "properties": { "PROVINCIE": "Utrecht", "BEVOEGD GEZAG NUMMER": "69994", "INSTELLINGSCODE": "06SU", "INSTELLINGSNAAM": "Ichthus College Scholengemeenschap voor Atheneum Havo Mavo", "STRAATNAAM": "Vondellaan", "HUISNUMMER-TOEVOEGING": "4", "POSTCODE": "3906 EA", "PLAATSNAAM": "VEENENDAAL", "GEMEENTENUMMER": "0345", "GEMEENTENAAM": "VEENENDAAL", "DENOMINATIE": "Bijzonder", "TELEFOONNUMMER": "0318543210", "INTERNETADRES": "www.ichthuscollege.nl", "ONDERWIJSSTRUCTUUR": "MAVO/HAVO/VWO", "STRAATNAAM CORRESPONDENTIEADRES": "Postbus", "HUISNUMMER-TOEVOEGING CORRESPONDENTIEADRES": "227", "POSTCODE CORRESPONDENTIEADRES": "3900 AE", "PLAATSNAAM CORRESPONDENTIEADRES": "VEENENDAAL", "NODAAL GEBIED CODE": "34", "NODAAL GEBIED NAAM": "Veenendaal", "RPA-GEBIED CODE": "10", "RPA-GEBIED NAAM": "De Vallei", "WGR-GEBIED CODE": "16", "WGR-GEBIED NAAM": "Eem en Vallei", "COROPGEBIED CODE": "17", "COROPGEBIED NAAM": "Utrecht", "ONDERWIJSGEBIED CODE": "13", "ONDERWIJSGEBIED NAAM": "Utrecht en omstreken", "RMC-REGIO CODE": "16", "RMC-REGIO NAAM": "Eem en Vallei" }, "geometry": { "type": "Point", "coordinates": [ 5.5253419, 52.0244799 ] } },
{ "type": "Feature", "properties": { "PROVINCIE": "Utrecht", "BEVOEGD GEZAG NUMMER": "76688", "INSTELLINGSCODE": "02TG", "INSTELLINGSNAAM": "Het Baarnsch Lyceum", "STRAATNAAM": "Torenlaan", "HUISNUMMER-TOEVOEGING": "83", "POSTCODE": "3742 CS", "PLAATSNAAM": "BAARN", "GEMEENTENUMMER": "0308", "GEMEENTENAAM": "BAARN", "DENOMINATIE": "Bijzonder", "TELEFOONNUMMER": "0355416041", "INTERNETADRES": "www.hetbaarnschlyceum.nl", "ONDERWIJSSTRUCTUUR": "HAVO/VWO", "STRAATNAAM CORRESPONDENTIEADRES": "Torenlaan", "HUISNUMMER-TOEVOEGING CORRESPONDENTIEADRES": "83", "POSTCODE CORRESPONDENTIEADRES": "3742 CS", "PLAATSNAAM CORRESPONDENTIEADRES": "BAARN", "NODAAL GEBIED CODE": "45", "NODAAL GEBIED NAAM": "Hilversum", "RPA-GEBIED CODE": "17", "RPA-GEBIED NAAM": "Eemland", "WGR-GEBIED CODE": "16", "WGR-GEBIED NAAM": "Eem en Vallei", "COROPGEBIED CODE": "17", "COROPGEBIED NAAM": "Utrecht", "ONDERWIJSGEBIED CODE": "15", "ONDERWIJSGEBIED NAAM": "Zuid-Noord-Holland", "RMC-REGIO CODE": "16", "RMC-REGIO NAAM": "Eem en Vallei" }, "geometry": { "type": "Point", "coordinates": [ 5.2909885, 52.2068283 ] } },
{ "type": "Feature", "properties": { "PROVINCIE": "Utrecht", "BEVOEGD GEZAG NUMMER": "76740", "INSTELLINGSCODE": "17WP", "INSTELLINGSNAAM": "Werkplaats Kindergemeenschap", "STRAATNAAM": "Kees Boekelaan", "HUISNUMMER-TOEVOEGING": "12", "POSTCODE": "3723 BA", "PLAATSNAAM": "BILTHOVEN", "GEMEENTENUMMER": "0310", "GEMEENTENAAM": "DE BILT", "DENOMINATIE": "Bijzonder", "TELEFOONNUMMER": "0302282841", "INTERNETADRES": "www.wpkeesboeke.nl", "ONDERWIJSSTRUCTUUR": "MAVO/HAVO/VWO", "STRAATNAAM CORRESPONDENTIEADRES": "Postbus", "HUISNUMMER-TOEVOEGING CORRESPONDENTIEADRES": "28", "POSTCODE CORRESPONDENTIEADRES": "3720 AA", "PLAATSNAAM CORRESPONDENTIEADRES": "BILTHOVEN", "NODAAL GEBIED CODE": "36", "NODAAL GEBIED NAAM": "Utrecht", "RPA-GEBIED CODE": "18", "RPA-GEBIED NAAM": "Utrecht-Midden", "WGR-GEBIED CODE": "19", "WGR-GEBIED NAAM": "Utrecht", "COROPGEBIED CODE": "17", "COROPGEBIED NAAM": "Utrecht", "ONDERWIJSGEBIED CODE": "13", "ONDERWIJSGEBIED NAAM": "Utrecht en omstreken", "RMC-REGIO CODE": "19", "RMC-REGIO NAAM": "Utrecht" }, "geometry": { "type": "Point", "coordinates": [ 5.196975, 52.13536085 ] } },
{ "type": "Feature", "properties": { "PROVINCIE": "Utrecht", "BEVOEGD GEZAG NUMMER": "76753", "INSTELLINGSCODE": "02TH", "INSTELLINGSNAAM": "Jordan Montessori Lyceum Utrecht havo/vwo", "STRAATNAAM": "Jordanlaan", "HUISNUMMER-TOEVOEGING": "3", "POSTCODE": "3706 TE", "PLAATSNAAM": "ZEIST", "GEMEENTENUMMER": "0355", "GEMEENTENAAM": "ZEIST", "DENOMINATIE": "Bijzonder", "TELEFOONNUMMER": "0306954708", "INTERNETADRES": "www.jordanmlu.nl", "ONDERWIJSSTRUCTUUR": "HAVO/VWO", "STRAATNAAM CORRESPONDENTIEADRES": "Postbus", "HUISNUMMER-TOEVOEGING CORRESPONDENTIEADRES": "442", "POSTCODE CORRESPONDENTIEADRES": "3700 AK", "PLAATSNAAM CORRESPONDENTIEADRES": "ZEIST", "NODAAL GEBIED CODE": "36", "NODAAL GEBIED NAAM": "Utrecht", "RPA-GEBIED CODE": "18", "RPA-GEBIED NAAM": "Utrecht-Midden", "WGR-GEBIED CODE": "19", "WGR-GEBIED NAAM": "Utrecht", "COROPGEBIED CODE": "17", "COROPGEBIED NAAM": "Utrecht", "ONDERWIJSGEBIED CODE": "13", "ONDERWIJSGEBIED NAAM": "Utrecht en omstreken", "RMC-REGIO CODE": "19", "RMC-REGIO NAAM": "Utrecht" }, "geometry": { "type": "Point", "coordinates": [ 5.21316325, 52.0980697 ] } },
{ "type": "Feature", "properties": { "PROVINCIE": "Utrecht", "BEVOEGD GEZAG NUMMER": "78132", "INSTELLINGSCODE": "26KA", "INSTELLINGSNAAM": "Futura College voor Praktijkonderwijs", "STRAATNAAM": "Abeellaan", "HUISNUMMER-TOEVOEGING": "2", "POSTCODE": "3442 JB", "PLAATSNAAM": "WOERDEN", "GEMEENTENUMMER": "0632", "GEMEENTENAAM": "WOERDEN", "DENOMINATIE": "Bijzonder", "TELEFOONNUMMER": "0348457320", "INTERNETADRES": "www.futuracollege.nl", "ONDERWIJSSTRUCTUUR": "PRO", "STRAATNAAM CORRESPONDENTIEADRES": "Postbus", "HUISNUMMER-TOEVOEGING CORRESPONDENTIEADRES": "244", "POSTCODE CORRESPONDENTIEADRES": "3440 AE", "PLAATSNAAM CORRESPONDENTIEADRES": "WOERDEN", "NODAAL GEBIED CODE": "48", "NODAAL GEBIED NAAM": "Woerden", "RPA-GEBIED CODE": "18", "RPA-GEBIED NAAM": "Utrecht-Midden", "WGR-GEBIED CODE": "19", "WGR-GEBIED NAAM": "Utrecht", "COROPGEBIED CODE": "17", "COROPGEBIED NAAM": "Utrecht", "ONDERWIJSGEBIED CODE": "13", "ONDERWIJSGEBIED NAAM": "Utrecht en omstreken", "RMC-REGIO CODE": "19", "RMC-REGIO NAAM": "Utrecht" }, "geometry": { "type": "Point", "coordinates": [ 4.8729655, 52.0797789 ] } },
{ "type": "Feature", "properties": { "PROVINCIE": "Utrecht", "BEVOEGD GEZAG NUMMER": "80328", "INSTELLINGSCODE": "02VM", "INSTELLINGSNAAM": "Christelijk Lyceum Scholengemeenschap voor Mavo Havo Lyceum", "STRAATNAAM": "Kerkewijk", "HUISNUMMER-TOEVOEGING": "149", "POSTCODE": "3904 JC", "PLAATSNAAM": "VEENENDAAL", "GEMEENTENUMMER": "0345", "GEMEENTENAAM": "VEENENDAAL", "DENOMINATIE": "Bijzonder", "TELEFOONNUMMER": "0318500621", "INTERNETADRES": "www.clv.nl", "ONDERWIJSSTRUCTUUR": "MAVO/HAVO/VWO", "STRAATNAAM CORRESPONDENTIEADRES": "Postbus", "HUISNUMMER-TOEVOEGING CORRESPONDENTIEADRES": "41", "POSTCODE CORRESPONDENTIEADRES": "3900 AA", "PLAATSNAAM CORRESPONDENTIEADRES": "VEENENDAAL", "NODAAL GEBIED CODE": "34", "NODAAL GEBIED NAAM": "Veenendaal", "RPA-GEBIED CODE": "10", "RPA-GEBIED NAAM": "De Vallei", "WGR-GEBIED CODE": "16", "WGR-GEBIED NAAM": "Eem en Vallei", "COROPGEBIED CODE": "17", "COROPGEBIED NAAM": "Utrecht", "ONDERWIJSGEBIED CODE": "13", "ONDERWIJSGEBIED NAAM": "Utrecht en omstreken", "RMC-REGIO CODE": "16", "RMC-REGIO NAAM": "Eem en Vallei" }, "geometry": { "type": "Point", "coordinates": [ 5.5444503, 52.01240575 ] } }
]
}
